start=new Date('2021-11-11T00:00:00.000Z').valueOf();
sats=[{"BSTAR":"0.00023493000000","FILE":"3211038","CLASSIFICATION_TYPE":"U","REF_FRAME":"TEME","ELEMENT_SET_NO":"999","PERIOD":"95.592","OBJECT_NAME":"STARLINK-2576","MEAN_ANOMALY":"282.1463","RCS_SIZE":"LARGE","INCLINATION":"53.0549","NORAD_CAT_ID":"48400","SEMIMAJOR_AXIS":"6925.332","ECCENTRICITY":"0.00013700","ARG_OF_PERICENTER":"77.9679","TIME_SYSTEM":"UTC","PERIAPSIS":"546.248","MEAN_MOTION_DOT":"0.00003220","CENTER_NAME":"EARTH","GP_ID":"189425698","MEAN_MOTION_DDOT":"0.0000000000000","DECAY_DATE":null,"APOAPSIS":"548.146","EPHEMERIS_TYPE":"0","RA_OF_ASC_NODE":"233.3050","TLE_LINE1":"1 48400U 21038AZ  21314.95789793  .00003220  00000-0  23493-3 0  9999","REV_AT_EPOCH":"2920","OBJECT_TYPE":"PAYLOAD","SITE":"AFETR","COUNTRY_CODE":"US","OBJECT_ID":"2021-038AZ","TLE_LINE2":"2 48400  53.0549 233.3050 0001370  77.9679 282.1463 15.06405385 29202","MEAN_MOTION":"15.06405385","LAUNCH_DATE":"2021-05-04","EPOCH":"2021-11-10T22:59:22.381152","MEAN_ELEMENT_THEORY":"SGP4"},{"ELEMENT_SET_NO":"999","PERIOD":"95.592","OBJECT_NAME":"STARLINK-2571","MEAN_ANOMALY":"285.4907","RCS_SIZE":"LARGE","NORAD_CAT_ID":"48401","INCLINATION":"53.0553","SEMIMAJOR_AXIS":"6925.350","BSTAR":"-0.00001314300000","FILE":"3210323","CLASSIFICATION_TYPE":"U","REF_FRAME":"TEME","TIME_SYSTEM":"UTC","PERIAPSIS":"546.239","MEAN_MOTION_DOT":"-0.00000477","CENTER_NAME":"EARTH","GP_ID":"189366640","MEAN_MOTION_DDOT":"0.0000000000000","ECCENTRICITY":"0.00014090","ARG_OF_PERICENTER":"74.6237","REV_AT_EPOCH":"2965","TLE_LINE1":"1 48401U 21038BA  21314.06496269 -.00000477  00000-0 -13143-4 0  9990","OBJECT_TYPE":"PAYLOAD","SITE":"AFETR","DECAY_DATE":null,"APOAPSIS":"548.191","EPHEMERIS_TYPE":"0","RA_OF_ASC_NODE":"237.3156","COUNTRY_CODE":"US","OBJECT_ID":"2021-038BA","TLE_LINE2":"2 48401  53.0553 237.3156 0001409  74.6237 285.4907 15.06399521 29658","MEAN_MOTION":"15.06399521","LAUNCH_DATE":"2021-05-04","EPOCH":"2021-11-10T01:33:32.776416","MEAN_ELEMENT_THEORY":"SGP4"},{"OBJECT_TYPE":"PAYLOAD","TLE_LINE1":"1 48402U 21038BB  21314.95421178  .00003270  00000-0  23829-3 0  9999","REV_AT_EPOCH":"2920","SITE":"AFETR","APOAPSIS":"548.159","DECAY_DATE":null,"EPHEMERIS_TYPE":"0","RA_OF_ASC_NODE":"233.3258","COUNTRY_CODE":"US","TLE_LINE2":"2 48402  53.0555 233.3258 0001390  70.4302 289.6837 15.06405473 29209","OBJECT_ID":"2021-038BB","MEAN_MOTION":"15.06405473","EPOCH":"2021-11-10T22:54:03.897792","LAUNCH_DATE":"2021-05-04","MEAN_ELEMENT_THEORY":"SGP4","OBJECT_NAME":"STARLINK-2560","PERIOD":"95.592","ELEMENT_SET_NO":"999","MEAN_ANOMALY":"289.6837","INCLINATION":"53.0555","NORAD_CAT_ID":"48402","RCS_SIZE":"LARGE","SEMIMAJOR_AXIS":"6925.332","BSTAR":"0.00023829000000","FILE":"3211038","REF_FRAME":"TEME","CLASSIFICATION_TYPE":"U","TIME_SYSTEM":"UTC","GP_ID":"189425503","PERIAPSIS":"546.234","MEAN_MOTION_DOT":"0.00003270","CENTER_NAME":"EARTH","MEAN_MOTION_DDOT":"0.0000000000000","ECCENTRICITY":"0.00013900","ARG_OF_PERICENTER":"70.4302"},{"MEAN_MOTION_DDOT":"0.0000000000000","GP_ID":"189425958","PERIAPSIS":"545.993","CENTER_NAME":"EARTH","MEAN_MOTION_DOT":"-0.00000825","TIME_SYSTEM":"UTC","ARG_OF_PERICENTER":"83.8433","ECCENTRICITY":"0.00017230","SEMIMAJOR_AXIS":"6925.321","NORAD_CAT_ID":"48403","INCLINATION":"53.0561","RCS_SIZE":"LARGE","MEAN_ANOMALY":"276.2752","OBJECT_NAME":"STARLINK-2561","ELEMENT_SET_NO":"999","PERIOD":"95.592","REF_FRAME":"TEME","CLASSIFICATION_TYPE":"U","FILE":"3211038","BSTAR":"-0.00003648700000","MEAN_ELEMENT_THEORY":"SGP4","EPOCH":"2021-11-10T22:48:46.052064","LAUNCH_DATE":"2021-05-04","OBJECT_ID":"2021-038BC","TLE_LINE2":"2 48403  53.0561 233.3325 0001723  83.8433 276.2752 15.06408835 29208","MEAN_MOTION":"15.06408835","COUNTRY_CODE":"US","SITE":"AFETR","OBJECT_TYPE":"PAYLOAD","REV_AT_EPOCH":"2920","TLE_LINE1":"1 48403U 21038BC  21314.95053301 -.00000825  00000-0 -36487-4 0  9999","RA_OF_ASC_NODE":"233.3325","EPHEMERIS_TYPE":"0","APOAPSIS":"548.380","DECAY_DATE":null},{"APOAPSIS":"548.152","DECAY_DATE":null,"EPHEMERIS_TYPE":"0","RA_OF_ASC_NODE":"233.3596","OBJECT_TYPE":"PAYLOAD","TLE_LINE1":"1 48404U 21038BD  21314.94683900 -.00000821  00000-0 -36216-4 0  9999","REV_AT_EPOCH":"2920","SITE":"AFETR","COUNTRY_CODE":"US","MEAN_MOTION":"15.06403067","TLE_LINE2":"2 48404  53.0558 233.3596 0001369  71.7942 288.3196 15.06403067 29200","OBJECT_ID":"2021-038BD","EPOCH":"2021-11-10T22:43:26.889600","LAUNCH_DATE":"2021-05-04","MEAN_ELEMENT_THEORY":"SGP4","BSTAR":"-0.00003621600000","FILE":"3211038","REF_FRAME":"TEME","CLASSIFICATION_TYPE":"U","OBJECT_NAME":"STARLINK-2593","ELEMENT_SET_NO":"999","PERIOD":"95.592","MEAN_ANOMALY":"288.3196","NORAD_CAT_ID":"48404","INCLINATION":"53.0558","RCS_SIZE":"LARGE","SEMIMAJOR_AXIS":"6925.339","ECCENTRICITY":"0.00013690","ARG_OF_PERICENTER":"71.7942","TIME_SYSTEM":"UTC","GP_ID":"189426076","PERIAPSIS":"546.256","MEAN_MOTION_DOT":"-0.00000821","CENTER_NAME":"EARTH","MEAN_MOTION_DDOT":"0.0000000000000"},{"MEAN_ELEMENT_THEORY":"SGP4","LAUNCH_DATE":"2021-05-04","EPOCH":"2021-11-10T22:38:10.262112","OBJECT_ID":"2021-038BE","TLE_LINE2":"2 48405  53.0558 233.3748 0001477  78.6618 281.4536 15.06366271 29203","MEAN_MOTION":"15.06366271","COUNTRY_CODE":"US","RA_OF_ASC_NODE":"233.3748","EPHEMERIS_TYPE":"0","DECAY_DATE":null,"APOAPSIS":"548.340","SITE":"AFETR","REV_AT_EPOCH":"2920","TLE_LINE1":"1 48405U 21038BE  21314.94317433  .00011707  00000-0  80423-3 0  9996","OBJECT_TYPE":"PAYLOAD","ARG_OF_PERICENTER":"78.6618","ECCENTRICITY":"0.00014770","MEAN_MOTION_DDOT":"0.0000000000000","PERIAPSIS":"546.294","MEAN_MOTION_DOT":"0.00011707","CENTER_NAME":"EARTH","GP_ID":"189425304","TIME_SYSTEM":"UTC","CLASSIFICATION_TYPE":"U","REF_FRAME":"TEME","FILE":"3211038","BSTAR":"0.00080423000000","SEMIMAJOR_AXIS":"6925.452","RCS_SIZE":"LARGE","INCLINATION":"53.0558","NORAD_CAT_ID":"48405","MEAN_ANOMALY":"281.4536","PERIOD":"95.594","ELEMENT_SET_NO":"999","OBJECT_NAME":"STARLINK-2570"},{"TIME_SYSTEM":"UTC","MEAN_MOTION_DDOT":"0.0000000000000","PERIAPSIS":"546.284","CENTER_NAME":"EARTH","MEAN_MOTION_DOT":"0.00001026","GP_ID":"189425882","ECCENTRICITY":"0.00013420","ARG_OF_PERICENTER":"81.2865","MEAN_ANOMALY":"278.8276","PERIOD":"95.592","ELEMENT_SET_NO":"999","OBJECT_NAME":"STARLINK-2568","SEMIMAJOR_AXIS":"6925.349","RCS_SIZE":"LARGE","NORAD_CAT_ID":"48406","INCLINATION":"53.0543","BSTAR":"0.00008775100000","CLASSIFICATION_TYPE":"U","REF_FRAME":"TEME","FILE":"3211038","MEAN_MOTION":"15.06399975","TLE_LINE2":"2 48406  53.0543 233.3832 0001342  81.2865 278.8276 15.06399975 29205","OBJECT_ID":"2021-038BF","COUNTRY_CODE":"US","MEAN_ELEMENT_THEORY":"SGP4","LAUNCH_DATE":"2021-05-04","EPOCH":"2021-11-10T22:32:49.616160","SITE":"AFETR","REV_AT_EPOCH":"2920","TLE_LINE1":"1 48406U 21038BF  21314.93946315  .00001026  00000-0  87751-4 0  9998","OBJECT_TYPE":"PAYLOAD","EPHEMERIS_TYPE":"0","DECAY_DATE":null,"APOAPSIS":"548.143","RA_OF_ASC_NODE":"233.3832"},{"OBJECT_ID":"2021-038BG","TLE_LINE2":"2 48407  53.0521 233.4046 0001728  67.5852 292.5320 15.06398114 29196","MEAN_MOTION":"15.06398114","COUNTRY_CODE":"US","MEAN_ELEMENT_THEORY":"SGP4","EPOCH":"2021-11-10T22:27:31.812768","LAUNCH_DATE":"2021-05-04","EPHEMERIS_TYPE":"0","APOAPSIS":"548.416","DECAY_DATE":null,"RA_OF_ASC_NODE":"233.4046","SITE":"AFETR","OBJECT_TYPE":"PAYLOAD","REV_AT_EPOCH":"2919","TLE_LINE1":"1 48407U 21038BG  21314.93578487  .00001505  00000-0  11992-3 0  9995","ECCENTRICITY":"0.00017280","ARG_OF_PERICENTER":"67.5852","TIME_SYSTEM":"UTC","MEAN_MOTION_DDOT":"0.0000000000000","GP_ID":"189425580","CENTER_NAME":"EARTH","PERIAPSIS":"546.023","MEAN_MOTION_DOT":"0.00001505","BSTAR":"0.00011992000000","REF_FRAME":"TEME","CLASSIFICATION_TYPE":"U","FILE":"3211038","MEAN_ANOMALY":"292.5320","OBJECT_NAME":"STARLINK-2595","ELEMENT_SET_NO":"999","PERIOD":"95.592","SEMIMAJOR_AXIS":"6925.354","INCLINATION":"53.0521","NORAD_CAT_ID":"48407","RCS_SIZE":"LARGE"},{"ECCENTRICITY":"0.00017160","ARG_OF_PERICENTER":"77.8063","TIME_SYSTEM":"UTC","MEAN_MOTION_DDOT":"0.0000000000000","PERIAPSIS":"546.004","MEAN_MOTION_DOT":"0.00003803","CENTER_NAME":"EARTH","GP_ID":"189371907","BSTAR":"0.00027404000000","CLASSIFICATION_TYPE":"U","REF_FRAME":"TEME","FILE":"3210691","MEAN_ANOMALY":"282.3118","ELEMENT_SET_NO":"999","PERIOD":"95.592","OBJECT_NAME":"STARLINK-2592","SEMIMAJOR_AXIS":"6925.328","RCS_SIZE":"LARGE","NORAD_CAT_ID":"48408","INCLINATION":"53.0543","MEAN_MOTION":"15.06406802","TLE_LINE2":"2 48408  53.0543 236.3904 0001716  77.8063 282.3118 15.06406802 29681","OBJECT_ID":"2021-038BH","COUNTRY_CODE":"US","MEAN_ELEMENT_THEORY":"SGP4","LAUNCH_DATE":"2021-05-04","EPOCH":"2021-11-10T06:26:49.585344","EPHEMERIS_TYPE":"0","DECAY_DATE":null,"APOAPSIS":"548.381","RA_OF_ASC_NODE":"236.3904","SITE":"AFETR","REV_AT_EPOCH":"2968","TLE_LINE1":"1 48408U 21038BH  21314.26862946  .00003803  00000-0  27404-3 0  9996","OBJECT_TYPE":"PAYLOAD"},{"BSTAR":"0.00032054000000","FILE":"3211038","REF_FRAME":"TEME","CLASSIFICATION_TYPE":"U","OBJECT_NAME":"STARLINK-2596","PERIOD":"95.592","ELEMENT_SET_NO":"999","MEAN_ANOMALY":"287.0133","INCLINATION":"53.0541","NORAD_CAT_ID":"48409","RCS_SIZE":"LARGE","SEMIMAJOR_AXIS":"6925.338","ECCENTRICITY":"0.00015170","ARG_OF_PERICENTER":"73.1022","TIME_SYSTEM":"UTC","GP_ID":"189424805","PERIAPSIS":"546.152","MEAN_MOTION_DOT":"0.00004497","CENTER_NAME":"EARTH","MEAN_MOTION_DDOT":"0.0000000000000","APOAPSIS":"548.253","DECAY_DATE":null,"EPHEMERIS_TYPE":"0","RA_OF_ASC_NODE":"238.3135","OBJECT_TYPE":"PAYLOAD","REV_AT_EPOCH":"2914","TLE_LINE1":"1 48409U 21038BJ  21314.95559997  .00004497  00000-0  32054-3 0  9999","SITE":"AFETR","COUNTRY_CODE":"US","TLE_LINE2":"2 48409  53.0541 238.3135 0001517  73.1022 287.0133 15.06403511 29145","OBJECT_ID":"2021-038BJ","MEAN_MOTION":"15.06403511","EPOCH":"2021-11-10T22:56:03.837408","LAUNCH_DATE":"2021-05-04","MEAN_ELEMENT_THEORY":"SGP4"}];
